[{"OBJECT_NAME":"STARLINK-2576","OBJECT_ID":"2021-038AZ","EPOCH":"2026-03-09T22:53:25.929312","MEAN_MOTION":15.30182761,"ECCENTRICITY":0.00010897,"INCLINATION":53.1586,"RA_OF_ASC_NODE":331.3901,"ARG_OF_PERICENTER":73.3268,"MEAN_ANOMALY":286.7852,"EPHEMERIS_TYPE":0,"CLASSIFICATION_TYPE":"U","NORAD_CAT_ID":48400,"ELEMENT_SET_NO":999,"REV_AT_EPOCH":26748,"BSTAR":-3.3990603e-5,"MEAN_MOTION_DOT":-1.365e-5,"MEAN_MOTION_DDOT":0},{"OBJECT_NAME":"TOMORROW-S1","OBJECT_ID":"2024-149M","EPOCH":"2026-03-09T17:23:34.533600","MEAN_MOTION":15.31198363,"ECCENTRICITY":0.00018188,"INCLINATION":97.3791,"RA_OF_ASC_NODE":149.6044,"ARG_OF_PERICENTER":207.204,"MEAN_ANOMALY":152.9106,"EPHEMERIS_TYPE":0,"CLASSIFICATION_TYPE":"U","NORAD_CAT_ID":60479,"ELEMENT_SET_NO":999,"REV_AT_EPOCH":8686,"BSTAR":0.0002885603,"MEAN_MOTION_DOT":8.62e-5,"MEAN_MOTION_DDOT":0}]
